{
  "type": "FeatureCollection",
  "features": [
    {
      "type": "Feature",
      "properties": {
        "norad_id": 45344,
        "name": "BEIDOU-3 G2 (C60)",
        "group": "gnss",
        "lat": -2.415893602384582,
        "lon": -29.770382715007518,
        "alt_km": 35779.663006239345,
        "timestamp": "2025-12-18T10:51:26.047875+00:00",
        "meta_object_name": "BEIDOU-3 G2 (C60)",
        "meta_object_id": "2020-017A",
        "meta_epoch": "2025-12-17T19:56:27.389184",
        "meta_mean_motion": 1.00276574,
        "meta_eccentricity": 0.0002286,
        "meta_inclination": 2.5064,
        "meta_ra_of_asc_node": 43.9767,
        "meta_arg_of_pericenter": 230.3031,
        "meta_mean_anomaly": 191.5542,
        "meta_ephemeris_type": 0,
        "meta_classification_type": "U",
        "meta_norad_cat_id": 45344,
        "meta_element_set_no": 999,
        "meta_rev_at_epoch": 2144,
        "meta_bstar": 0,
        "meta_mean_motion_dot": -1.19e-06,
        "meta_mean_motion_ddot": 0,
        "tle_line1": "1 45344U 20017A   25351.83087256 -.00000119  00000+0  00000+0 0  9995",
        "tle_line2": "2 45344   2.5064  43.9767 0002286 230.3031 191.5542  1.00276574 21445"
      },
      "geometry": {
        "type": "Point",
        "coordinates": [
          -29.770382715007518,
          -2.415893602384582
        ]
      }
    },
    {
      "type": "Feature",
      "properties": {
        "norad_id": 45358,
        "name": "COSMOS 2545 (760)",
        "group": "gnss",
        "lat": -63.35452445568775,
        "lon": -113.48677983277211,
        "alt_km": 19110.256906652892,
        "timestamp": "2025-12-18T10:51:26.047893+00:00",
        "meta_object_name": "COSMOS 2545 (760)",
        "meta_object_id": "2020-018A",
        "meta_epoch": "2025-12-16T05:06:52.711776",
        "meta_mean_motion": 2.13102549,
        "meta_eccentricity": 0.00116565,
        "meta_inclination": 64.4672,
        "meta_ra_of_asc_node": 318.8472,
        "meta_arg_of_pericenter": 249.26,
        "meta_mean_anomaly": 110.6088,
        "meta_ephemeris_type": 0,
        "meta_classification_type": "U",
        "meta_norad_cat_id": 45358,
        "meta_element_set_no": 999,
        "meta_rev_at_epoch": 4476,
        "meta_bstar": 0,
        "meta_mean_motion_dot": -7e-07,
        "meta_mean_motion_ddot": 0,
        "tle_line1": "1 45358U 20018A   25350.21311009 -.00000070  00000+0  00000+0 0  9994",
        "tle_line2": "2 45358  64.4672 318.8472 0011656 249.2600 110.6088  2.13102549 44763"
      },
      "geometry": {
        "type": "Point",
        "coordinates": [
          -113.48677983277211,
          -63.35452445568775
        ]
      }
    },
    {
      "type": "Feature",
      "properties": {
        "norad_id": 45807,
        "name": "BEIDOU-3 G3 (C61)",
        "group": "gnss",
        "lat": -1.8247505527194245,
        "lon": 0.7402717859492003,
        "alt_km": 35760.45434596855,
        "timestamp": "2025-12-18T10:51:26.047907+00:00",
        "meta_object_name": "BEIDOU-3 G3 (C61)",
        "meta_object_id": "2020-040A",
        "meta_epoch": "2025-12-17T20:42:00.687744",
        "meta_mean_motion": 1.00271811,
        "meta_eccentricity": 0.0006402,
        "meta_inclination": 2.0032,
        "meta_ra_of_asc_node": 66.6314,
        "meta_arg_of_pericenter": 309.0943,
        "meta_mean_anomaly": 132.0925,
        "meta_ephemeris_type": 0,
        "meta_classification_type": "U",
        "meta_norad_cat_id": 45807,
        "meta_element_set_no": 999,
        "meta_rev_at_epoch": 2025,
        "meta_bstar": 0,
        "meta_mean_motion_dot": -3.31e-06,
        "meta_mean_motion_ddot": 0,
        "tle_line1": "1 45807U 20040A   25351.86250796 -.00000331  00000+0  00000+0 0  9995",
        "tle_line2": "2 45807   2.0032  66.6314 0006402 309.0943 132.0925  1.00271811 20251"
      },
      "geometry": {
        "type": "Point",
        "coordinates": [
          0.7402717859492003,
          -1.8247505527194245
        ]
      }
    },
    {
      "type": "Feature",
      "properties": {
        "norad_id": 45854,
        "name": "GPS BIII-3  (PRN 23)",
        "group": "gnss",
        "lat": 25.740710757087577,
        "lon": -162.58756669354457,
        "alt_km": 20086.500172060074,
        "timestamp": "2025-12-18T10:51:26.047919+00:00",
        "meta_object_name": "GPS BIII-3  (PRN 23)",
        "meta_object_id": "2020-041A",
        "meta_epoch": "2025-12-17T06:02:11.568192",
        "meta_mean_motion": 2.00562016,
        "meta_eccentricity": 0.00605926,
        "meta_inclination": 56.5499,
        "meta_ra_of_asc_node": 36.0099,
        "meta_arg_of_pericenter": 203.5861,
        "meta_mean_anomaly": 158.5614,
        "meta_ephemeris_type": 0,
        "meta_classification_type": "U",
        "meta_norad_cat_id": 45854,
        "meta_element_set_no": 999,
        "meta_rev_at_epoch": 4039,
        "meta_bstar": 0,
        "meta_mean_motion_dot": -7.7e-07,
        "meta_mean_motion_ddot": 0,
        "tle_line1": "1 45854U 20041A   25351.25152278 -.00000077  00000+0  00000+0 0  9994",
        "tle_line2": "2 45854  56.5499  36.0099 0060592 203.5861 158.5614  2.00562016 40398"
      },
      "geometry": {
        "type": "Point",
        "coordinates": [
          -162.58756669354457,
          25.740710757087577
        ]
      }
    },
    {
      "type": "Feature",
      "properties": {
        "norad_id": 46114,
        "name": "GALAXY 30 (WAAS/PRN 135)",
        "group": "gnss",
        "lat": 0.02748159770882706,
        "lon": 125.15464499426204,
        "alt_km": 35792.58045634693,
        "timestamp": "2025-12-18T10:51:26.047942+00:00",
        "meta_object_name": "GALAXY 30 (WAAS/PRN 135)",
        "meta_object_id": "2020-056C",
        "meta_epoch": "2025-12-17T16:09:21.285792",
        "meta_mean_motion": 1.00272596,
        "meta_eccentricity": 0.00020342,
        "meta_inclination": 0.0187,
        "meta_ra_of_asc_node": 340.7009,
        "meta_arg_of_pericenter": 286.3585,
        "meta_mean_anomaly": 296.8309,
        "meta_ephemeris_type": 0,
        "meta_classification_type": "U",
        "meta_norad_cat_id": 46114,
        "meta_element_set_no": 999,
        "meta_rev_at_epoch": 1947,
        "meta_bstar": 0,
        "meta_mean_motion_dot": 6.2e-07,
        "meta_mean_motion_ddot": 0,
        "tle_line1": "1 46114U 20056C   25351.67316303  .00000062  00000+0  00000+0 0  9990",
        "tle_line2": "2 46114   0.0187 340.7009 0002034 286.3585 296.8309  1.00272596 19473"
      },
      "geometry": {
        "type": "Point",
        "coordinates": [
          125.15464499426204,
          0.02748159770882706
        ]
      }
    },
    {
      "type": "Feature",
      "properties": {
        "norad_id": 46805,
        "name": "COSMOS 2547 (705K)",
        "group": "gnss",
        "lat": 40.94679389674183,
        "lon": -5.850143947779505,
        "alt_km": 19126.660300813848,
        "timestamp": "2025-12-18T10:51:26.047957+00:00",
        "meta_object_name": "COSMOS 2547 (705K)",
        "meta_object_id": "2020-075A",
        "meta_epoch": "2025-12-17T08:09:16.456320",
        "meta_mean_motion": 2.1310013,
        "meta_eccentricity": 0.0006169,
        "meta_inclination": 64.5962,
        "meta_ra_of_asc_node": 198.5429,
        "meta_arg_of_pericenter": 228.3795,
        "meta_mean_anomaly": 131.6499,
        "meta_ephemeris_type": 0,
        "meta_classification_type": "U",
        "meta_norad_cat_id": 46805,
        "meta_element_set_no": 999,
        "meta_rev_at_epoch": 4003,
        "meta_bstar": 0,
        "meta_mean_motion_dot": 1.12e-06,
        "meta_mean_motion_ddot": 0,
        "tle_line1": "1 46805U 20075A   25351.33977380  .00000112  00000+0  00000+0 0  9995",
        "tle_line2": "2 46805  64.5962 198.5429 0006169 228.3795 131.6499  2.13100130 40034"
      },
      "geometry": {
        "type": "Point",
        "coordinates": [
          -5.850143947779505,
          40.94679389674183
        ]
      }
    },
    {
      "type": "Feature",
      "properties": {
        "norad_id": 46826,
        "name": "GPS BIII-4  (PRN 14)",
        "group": "gnss",
        "lat": 44.73399405021284,
        "lon": -7.900282797216457,
        "alt_km": 20157.300249289037,
        "timestamp": "2025-12-18T10:51:26.047969+00:00",
        "meta_object_name": "GPS BIII-4  (PRN 14)",
        "meta_object_id": "2020-078A",
        "meta_epoch": "2025-12-16T01:06:13.902336",
        "meta_mean_motion": 2.00566891,
        "meta_eccentricity": 0.00647554,
        "meta_inclination": 54.0145,
        "meta_ra_of_asc_node": 218.2068,
        "meta_arg_of_pericenter": 203.3828,
        "meta_mean_anomaly": 339.3936,
        "meta_ephemeris_type": 0,
        "meta_classification_type": "U",
        "meta_norad_cat_id": 46826,
        "meta_element_set_no": 999,
        "meta_rev_at_epoch": 3783,
        "meta_bstar": 0,
        "meta_mean_motion_dot": 6.7e-07,
        "meta_mean_motion_ddot": 0,
        "tle_line1": "1 46826U 20078A   25350.04599424  .00000067  00000+0  00000+0 0  9996",
        "tle_line2": "2 46826  54.0145 218.2068 0064755 203.3828 339.3936  2.00566891 37831"
      },
      "geometry": {
        "type": "Point",
        "coordinates": [
          -7.900282797216457,
          44.73399405021284
        ]
      }
    }
  ]
}